[{"OBJECT_NAME":"ONEWEB-0235","OBJECT_ID":"2021-045E","EPOCH":"2026-03-11T00:20:39.597216","MEAN_MOTION":13.15548304,"ECCENTRICITY":0.00018472,"INCLINATION":87.8944,"RA_OF_ASC_NODE":278.7868,"ARG_OF_PERICENTER":102.2604,"MEAN_ANOMALY":257.8734,"EPHEMERIS_TYPE":0,"CLASSIFICATION_TYPE":"U","NORAD_CAT_ID":48771,"ELEMENT_SET_NO":999,"REV_AT_EPOCH":23147,"BSTAR":0.00034184989,"MEAN_MOTION_DOT":1.42e-6,"MEAN_MOTION_DDOT":0},{"OBJECT_NAME":"ONEWEB-0242","OBJECT_ID":"2021-045F","EPOCH":"2026-03-11T07:29:37.248288","MEAN_MOTION":13.15548107,"ECCENTRICITY":0.00015668,"INCLINATION":87.8944,"RA_OF_ASC_NODE":278.7232,"ARG_OF_PERICENTER":96.6525,"MEAN_ANOMALY":263.4783,"EPHEMERIS_TYPE":0,"CLASSIFICATION_TYPE":"U","NORAD_CAT_ID":48772,"ELEMENT_SET_NO":999,"REV_AT_EPOCH":23155,"BSTAR":-0.00010643141,"MEAN_MOTION_DOT":-2.7e-7,"MEAN_MOTION_DDOT":0},{"OBJECT_NAME":"ONEWEB-0241","OBJECT_ID":"2021-045G","EPOCH":"2026-03-11T07:11:22.346016","MEAN_MOTION":13.15548024,"ECCENTRICITY":0.00020025,"INCLINATION":87.8936,"RA_OF_ASC_NODE":278.7546,"ARG_OF_PERICENTER":95.1036,"MEAN_ANOMALY":265.0323,"EPHEMERIS_TYPE":0,"CLASSIFICATION_TYPE":"U","NORAD_CAT_ID":48773,"ELEMENT_SET_NO":999,"REV_AT_EPOCH":23146,"BSTAR":-0.00028769011,"MEAN_MOTION_DOT":-9.5e-7,"MEAN_MOTION_DDOT":0},{"OBJECT_NAME":"ONEWEB-0243","OBJECT_ID":"2021-045H","EPOCH":"2026-03-11T00:38:54.675744","MEAN_MOTION":13.15551242,"ECCENTRICITY":0.00014747,"INCLINATION":87.8938,"RA_OF_ASC_NODE":278.8207,"ARG_OF_PERICENTER":110.5942,"MEAN_ANOMALY":249.5346,"EPHEMERIS_TYPE":0,"CLASSIFICATION_TYPE":"U","NORAD_CAT_ID":48774,"ELEMENT_SET_NO":999,"REV_AT_EPOCH":23145,"BSTAR":0.00041520129,"MEAN_MOTION_DOT":1.69e-6,"MEAN_MOTION_DDOT":0},{"OBJECT_NAME":"ONEWEB-0222","OBJECT_ID":"2021-045J","EPOCH":"2026-03-11T02:04:29.373312","MEAN_MOTION":13.15548534,"ECCENTRICITY":0.00017198,"INCLINATION":87.8944,"RA_OF_ASC_NODE":278.7687,"ARG_OF_PERICENTER":94.4135,"MEAN_ANOMALY":265.7191,"EPHEMERIS_TYPE":0,"CLASSIFICATION_TYPE":"U","NORAD_CAT_ID":48775,"ELEMENT_SET_NO":999,"REV_AT_EPOCH":23150,"BSTAR":0.00024295998,"MEAN_MOTION_DOT":1.04e-6,"MEAN_MOTION_DDOT":0},{"OBJECT_NAME":"ONEWEB-0244","OBJECT_ID":"2021-045K","EPOCH":"2026-03-11T00:52:36.357024","MEAN_MOTION":13.1554787,"ECCENTRICITY":0.0001586,"INCLINATION":87.8949,"RA_OF_ASC_NODE":278.7688,"ARG_OF_PERICENTER":93.2815,"MEAN_ANOMALY":266.8497,"EPHEMERIS_TYPE":0,"CLASSIFICATION_TYPE":"U","NORAD_CAT_ID":48776,"ELEMENT_SET_NO":999,"REV_AT_EPOCH":23206,"BSTAR":0.00025624489,"MEAN_MOTION_DOT":1.09e-6,"MEAN_MOTION_DDOT":0},{"OBJECT_NAME":"ONEWEB-0247","OBJECT_ID":"2021-045L","EPOCH":"2026-03-11T00:48:03.048768","MEAN_MOTION":13.15547946,"ECCENTRICITY":0.00018229,"INCLINATION":87.8938,"RA_OF_ASC_NODE":278.814,"ARG_OF_PERICENTER":117.3133,"MEAN_ANOMALY":242.8183,"EPHEMERIS_TYPE":0,"CLASSIFICATION_TYPE":"U","NORAD_CAT_ID":48777,"ELEMENT_SET_NO":999,"REV_AT_EPOCH":23150,"BSTAR":0.00037169347,"MEAN_MOTION_DOT":1.53e-6,"MEAN_MOTION_DDOT":0},{"OBJECT_NAME":"ONEWEB-0245","OBJECT_ID":"2021-045M","EPOCH":"2026-03-11T00:41:11.625792","MEAN_MOTION":13.15548157,"ECCENTRICITY":0.00018231,"INCLINATION":87.8948,"RA_OF_ASC_NODE":278.7852,"ARG_OF_PERICENTER":90.4444,"MEAN_ANOMALY":269.6895,"EPHEMERIS_TYPE":0,"CLASSIFICATION_TYPE":"U","NORAD_CAT_ID":48778,"ELEMENT_SET_NO":999,"REV_AT_EPOCH":23147,"BSTAR":0.00050224351,"MEAN_MOTION_DOT":2.02e-6,"MEAN_MOTION_DDOT":0},{"OBJECT_NAME":"ONEWEB-0229","OBJECT_ID":"2021-045N","EPOCH":"2026-03-11T00:34:21.014976","MEAN_MOTION":13.15548198,"ECCENTRICITY":0.00015236,"INCLINATION":87.8946,"RA_OF_ASC_NODE":278.7848,"ARG_OF_PERICENTER":95.0384,"MEAN_ANOMALY":265.0921,"EPHEMERIS_TYPE":0,"CLASSIFICATION_TYPE":"U","NORAD_CAT_ID":48779,"ELEMENT_SET_NO":999,"REV_AT_EPOCH":23150,"BSTAR":0.00037418278,"MEAN_MOTION_DOT":1.54e-6,"MEAN_MOTION_DDOT":0},{"OBJECT_NAME":"ONEWEB-0228","OBJECT_ID":"2021-045P","EPOCH":"2026-03-11T03:11:59.659296","MEAN_MOTION":13.15547394,"ECCENTRICITY":0.00016845,"INCLINATION":87.8946,"RA_OF_ASC_NODE":278.7501,"ARG_OF_PERICENTER":92.522,"MEAN_ANOMALY":267.6103,"EPHEMERIS_TYPE":0,"CLASSIFICATION_TYPE":"U","NORAD_CAT_ID":48780,"ELEMENT_SET_NO":999,"REV_AT_EPOCH":23143,"BSTAR":-0.00044790992,"MEAN_MOTION_DOT":-1.56e-6,"MEAN_MOTION_DDOT":0},{"OBJECT_NAME":"ONEWEB-0232","OBJECT_ID":"2021-045Q","EPOCH":"2026-03-11T00:45:45.138816","MEAN_MOTION":13.15547165,"ECCENTRICITY":0.00015936,"INCLINATION":87.8956,"RA_OF_ASC_NODE":278.7695,"ARG_OF_PERICENTER":91.2114,"MEAN_ANOMALY":268.9199,"EPHEMERIS_TYPE":0,"CLASSIFICATION_TYPE":"U","NORAD_CAT_ID":48781,"ELEMENT_SET_NO":999,"REV_AT_EPOCH":23174,"BSTAR":0.00035714407,"MEAN_MOTION_DOT":1.47e-6,"MEAN_MOTION_DDOT":0},{"OBJECT_NAME":"ONEWEB-0231","OBJECT_ID":"2021-045R","EPOCH":"2026-03-11T00:13:49.121184","MEAN_MOTION":13.1554797,"ECCENTRICITY":0.00017981,"INCLINATION":87.8937,"RA_OF_ASC_NODE":278.8008,"ARG_OF_PERICENTER":96.8629,"MEAN_ANOMALY":263.2706,"EPHEMERIS_TYPE":0,"CLASSIFICATION_TYPE":"U","NORAD_CAT_ID":48782,"ELEMENT_SET_NO":999,"REV_AT_EPOCH":23143,"BSTAR":0.00021335676,"MEAN_MOTION_DOT":9.3e-7,"MEAN_MOTION_DDOT":0},{"OBJECT_NAME":"ONEWEB-0234","OBJECT_ID":"2021-045S","EPOCH":"2026-03-11T01:08:21.414048","MEAN_MOTION":13.1555085,"ECCENTRICITY":0.00022122,"INCLINATION":87.8937,"RA_OF_ASC_NODE":278.7709,"ARG_OF_PERICENTER":71.5935,"MEAN_ANOMALY":288.5436,"EPHEMERIS_TYPE":0,"CLASSIFICATION_TYPE":"U","NORAD_CAT_ID":48783,"ELEMENT_SET_NO":999,"REV_AT_EPOCH":23157,"BSTAR":0.00014918128,"MEAN_MOTION_DOT":6.9e-7,"MEAN_MOTION_DDOT":0},{"OBJECT_NAME":"ONEWEB-0238","OBJECT_ID":"2021-045T","EPOCH":"2026-03-11T01:08:46.821696","MEAN_MOTION":13.15547785,"ECCENTRICITY":0.00018882,"INCLINATION":87.8938,"RA_OF_ASC_NODE":278.7645,"ARG_OF_PERICENTER":80.8015,"MEAN_ANOMALY":279.3329,"EPHEMERIS_TYPE":0,"CLASSIFICATION_TYPE":"U","NORAD_CAT_ID":48784,"ELEMENT_SET_NO":999,"REV_AT_EPOCH":23147,"BSTAR":0.00010738973,"MEAN_MOTION_DOT":5.3e-7,"MEAN_MOTION_DDOT":0},{"OBJECT_NAME":"ONEWEB-0240","OBJECT_ID":"2021-045U","EPOCH":"2026-03-11T01:39:23.907744","MEAN_MOTION":13.15546928,"ECCENTRICITY":0.00019512,"INCLINATION":87.8956,"RA_OF_ASC_NODE":278.762,"ARG_OF_PERICENTER":94.7968,"MEAN_ANOMALY":265.3385,"EPHEMERIS_TYPE":0,"CLASSIFICATION_TYPE":"U","NORAD_CAT_ID":48785,"ELEMENT_SET_NO":999,"REV_AT_EPOCH":23150,"BSTAR":-0.00020966632,"MEAN_MOTION_DOT":-6.6e-7,"MEAN_MOTION_DDOT":0},{"OBJECT_NAME":"ONEWEB-0246","OBJECT_ID":"2021-045V","EPOCH":"2026-03-11T01:31:23.579040","MEAN_MOTION":13.15547853,"ECCENTRICITY":0.00015606,"INCLINATION":87.8949,"RA_OF_ASC_NODE":278.7726,"ARG_OF_PERICENTER":95.3611,"MEAN_ANOMALY":264.7697,"EPHEMERIS_TYPE":0,"CLASSIFICATION_TYPE":"U","NORAD_CAT_ID":48786,"ELEMENT_SET_NO":999,"REV_AT_EPOCH":23137,"BSTAR":-0.00029725044,"MEAN_MOTION_DOT":-9.9e-7,"MEAN_MOTION_DDOT":0},{"OBJECT_NAME":"ONEWEB-0210","OBJECT_ID":"2021-045W","EPOCH":"2026-03-11T00:54:53.072064","MEAN_MOTION":13.15548165,"ECCENTRICITY":0.00016067,"INCLINATION":87.8948,"RA_OF_ASC_NODE":278.7745,"ARG_OF_PERICENTER":125.8211,"MEAN_ANOMALY":234.3069,"EPHEMERIS_TYPE":0,"CLASSIFICATION_TYPE":"U","NORAD_CAT_ID":48787,"ELEMENT_SET_NO":999,"REV_AT_EPOCH":23141,"BSTAR":0.0004441789,"MEAN_MOTION_DOT":1.8e-6,"MEAN_MOTION_DDOT":0},{"OBJECT_NAME":"ONEWEB-0214","OBJECT_ID":"2021-045X","EPOCH":"2026-03-11T06:36:00.574560","MEAN_MOTION":13.15548694,"ECCENTRICITY":0.00013551,"INCLINATION":87.8949,"RA_OF_ASC_NODE":278.723,"ARG_OF_PERICENTER":102.8359,"MEAN_ANOMALY":257.2923,"EPHEMERIS_TYPE":0,"CLASSIFICATION_TYPE":"U","NORAD_CAT_ID":48788,"ELEMENT_SET_NO":999,"REV_AT_EPOCH":23141,"BSTAR":0.00015764669,"MEAN_MOTION_DOT":7.2e-7,"MEAN_MOTION_DDOT":0},{"OBJECT_NAME":"ONEWEB-0221","OBJECT_ID":"2021-045Y","EPOCH":"2026-03-11T03:07:13.538784","MEAN_MOTION":13.15547718,"ECCENTRICITY":0.00017688,"INCLINATION":87.8948,"RA_OF_ASC_NODE":278.7617,"ARG_OF_PERICENTER":95.4686,"MEAN_ANOMALY":264.6646,"EPHEMERIS_TYPE":0,"CLASSIFICATION_TYPE":"U","NORAD_CAT_ID":48789,"ELEMENT_SET_NO":999,"REV_AT_EPOCH":23148,"BSTAR":-0.00028067618,"MEAN_MOTION_DOT":-9.3e-7,"MEAN_MOTION_DDOT":0},{"OBJECT_NAME":"ONEWEB-0213","OBJECT_ID":"2021-045Z","EPOCH":"2026-03-11T06:30:17.750592","MEAN_MOTION":13.15548599,"ECCENTRICITY":0.00016536,"INCLINATION":87.8947,"RA_OF_ASC_NODE":278.7377,"ARG_OF_PERICENTER":100.6389,"MEAN_ANOMALY":259.4928,"EPHEMERIS_TYPE":0,"CLASSIFICATION_TYPE":"U","NORAD_CAT_ID":48790,"ELEMENT_SET_NO":999,"REV_AT_EPOCH":23156,"BSTAR":0.00024575068,"MEAN_MOTION_DOT":1.05e-6,"MEAN_MOTION_DDOT":0},{"OBJECT_NAME":"ONEWEB-0212","OBJECT_ID":"2021-045AA","EPOCH":"2026-03-11T00:28:38.832096","MEAN_MOTION":13.15547716,"ECCENTRICITY":0.00016255,"INCLINATION":87.8946,"RA_OF_ASC_NODE":278.7826,"ARG_OF_PERICENTER":88.9029,"MEAN_ANOMALY":271.2287,"EPHEMERIS_TYPE":0,"CLASSIFICATION_TYPE":"U","NORAD_CAT_ID":48791,"ELEMENT_SET_NO":999,"REV_AT_EPOCH":23152,"BSTAR":0.00029522243,"MEAN_MOTION_DOT":1.24e-6,"MEAN_MOTION_DDOT":0},{"OBJECT_NAME":"ONEWEB-0227","OBJECT_ID":"2021-045AB","EPOCH":"2026-03-11T00:27:30.594240","MEAN_MOTION":13.15548008,"ECCENTRICITY":0.00016755,"INCLINATION":87.8942,"RA_OF_ASC_NODE":278.7851,"ARG_OF_PERICENTER":91.271,"MEAN_ANOMALY":268.8612,"EPHEMERIS_TYPE":0,"CLASSIFICATION_TYPE":"U","NORAD_CAT_ID":48792,"ELEMENT_SET_NO":999,"REV_AT_EPOCH":23147,"BSTAR":0.00039133631,"MEAN_MOTION_DOT":1.6e-6,"MEAN_MOTION_DDOT":0},{"OBJECT_NAME":"ONEWEB-0226","OBJECT_ID":"2021-045AC","EPOCH":"2026-03-11T00:18:22.597056","MEAN_MOTION":13.15548092,"ECCENTRICITY":0.00015787,"INCLINATION":87.8936,"RA_OF_ASC_NODE":278.7951,"ARG_OF_PERICENTER":102.3489,"MEAN_ANOMALY":257.7818,"EPHEMERIS_TYPE":0,"CLASSIFICATION_TYPE":"U","NORAD_CAT_ID":48793,"ELEMENT_SET_NO":999,"REV_AT_EPOCH":23144,"BSTAR":0.00032627224,"MEAN_MOTION_DOT":1.36e-6,"MEAN_MOTION_DDOT":0}]
